ONEWEB-0300             
1 49089U 21075Q   25012.78528631 -.00000370  00000+0 -10629-2 0  9996
2 49089  87.8868  94.2815 0001420 102.8933 257.2354 13.12440657166946
ONEWEB-0301             
1 49090U 21075R   25012.76907449 -.00000078  00000+0 -25089-3 0  9996
2 49090  87.8869  94.2899 0001458 104.9196 255.2094 13.12439765166303
ONEWEB-0302             
1 49091U 21075S   25012.75612040  .00000670  00000+0  18262-2 0  9996
2 49091  87.8867  94.2925 0002247 106.9572 253.1802 13.12436916166285
ONEWEB-0304             
1 49092U 21075T   25012.77776076  .00000034  00000+0  53542-4 0  9995
2 49092  87.9102 109.5495 0001857 101.5080 258.6260 13.17651333165040
ONEWEB-0305             
1 49093U 21075U   25012.77101088  .00000050  00000+0  94965-4 0  9993
2 49093  87.9098 109.5323 0001963  92.1284 268.0072 13.17651667165073
ONEWEB-0308             
1 49094U 21075V   25013.20704423  .00000360  00000+0  96546-3 0  9995
2 49094  87.8869  94.1993 0001709 101.7168 258.4152 13.12442632167379
ONEWEB-0309             
1 49095U 21075W   25012.77438801 -.00000318  00000+0 -85193-3 0  9992
2 49095  87.9102 109.5428 0002188 113.7879 246.3482 13.17648558165043
ONEWEB-0310             
1 49096U 21075X   25012.76421223  .00000090  00000+0  21390-3 0  9996
2 49096  87.8877  94.3148 0001887 107.2168 252.9167 13.12440122166929
